{"type": "FeatureCollection", "features": [ {"type": "Feature", "properties": {"norad_id": 66856, "name": "STARLINK-36072", "group": "last-30-days", "lat": 12.86308672806904, "lon": 146.0629103394134, "alt_km": 287.3878169515392, "timestamp": "2025-12-11T05:00:25.077325+00:00", "meta": {"OBJECT_NAME": "STARLINK-36072", "OBJECT_ID": "2025-281J", "EPOCH": "2025-12-10T16:00:01.999584", "MEAN_MOTION": 15.95902482, "ECCENTRICITY": 0.00016438, "INCLINATION": 43.0014, "RA_OF_ASC_NODE": 135.2663, "ARG_OF_PERICENTER": 276.2049, "MEAN_ANOMALY": 226.6934, "EPHEMERIS_TYPE": 0, "CLASSIFICATION_TYPE": "U", "NORAD_CAT_ID": 66856, "ELEMENT_SET_NO": 999, "REV_AT_EPOCH": 246, "BSTAR": -0.0027360976, "MEAN_MOTION_DOT": -0.0115835, "MEAN_MOTION_DDOT": 0.00041087948}, "tle": {"line1": "1 66856U 25281J   25344.66668981 -.01158350  41088-3 -27361-2 0  9997", "line2": "2 66856  43.0014 135.2663 0001643 276.2049 226.6934 15.95902482  2464"}}, "geometry": {"type": "Point", "coordinates": [146.0629103394134, 12.86308672806904]}}, {"type": "Feature", "properties": {"norad_id": 66857, "name": "STARLINK-36083", "group": "last-30-days", "lat": 14.222821567494407, "lon": 147.6561947879971, "alt_km": 287.0684175305696, "timestamp": "2025-12-11T05:00:25.077337+00:00", "meta": {"OBJECT_NAME": "STARLINK-36083", "OBJECT_ID": "2025-281K", "EPOCH": "2025-12-10T16:00:01.999584", "MEAN_MOTION": 15.95976314, "ECCENTRICITY": 0.00016557, "INCLINATION": 43.0014, "RA_OF_ASC_NODE": 135.2616, "ARG_OF_PERICENTER": 277.0441, "MEAN_ANOMALY": 227.797, "EPHEMERIS_TYPE": 0, "CLASSIFICATION_TYPE": "U", "NORAD_CAT_ID": 66857, "ELEMENT_SET_NO": 999, "REV_AT_EPOCH": 246, "BSTAR": -0.0027805964, "MEAN_MOTION_DOT": -0.01181694, "MEAN_MOTION_DDOT": 0.00042645657}, "tle": {"line1": "1 66857U 25281K   25344.66668981 -.01181694  42646-3 -27806-2 0  9990", "line2": "2 66857  43.0014 135.2616 0001655 277.0441 227.7970 15.95976314  2468"}}, "geometry": {"type": "Point", "coordinates": [147.6561947879971, 14.222821567494407]}}, {"type": "Feature", "properties": {"norad_id": 66858, "name": "STARLINK-35118", "group": "last-30-days", "lat": 15.64718621160747, "lon": 149.3590273946674, "alt_km": 286.80253176916267, "timestamp": "2025-12-11T05:00:25.077347+00:00", "meta": {"OBJECT_NAME": "STARLINK-35118", "OBJECT_ID": "2025-281L", "EPOCH": "2025-12-10T16:00:01.999584", "MEAN_MOTION": 15.96046904, "ECCENTRICITY": 0.00016257, "INCLINATION": 43.0016, "RA_OF_ASC_NODE": 135.2559, "ARG_OF_PERICENTER": 274.4321, "MEAN_ANOMALY": 232.4648, "EPHEMERIS_TYPE": 0, "CLASSIFICATION_TYPE": "U", "NORAD_CAT_ID": 66858, "ELEMENT_SET_NO": 999, "REV_AT_EPOCH": 246, "BSTAR": -0.002802372, "MEAN_MOTION_DOT": -0.01195394, "MEAN_MOTION_DDOT": 0.00043584987}, "tle": {"line1": "1 66858U 25281L   25344.66668981 -.01195394  43585-3 -28024-2 0  9999", "line2": "2 66858  43.0016 135.2559 0001625 274.4321 232.4648 15.96046904  2461"}}, "geometry": {"type": "Point", "coordinates": [149.3590273946674, 15.64718621160747]}}, {"type": "Feature", "properties": {"norad_id": 66859, "name": "STARLINK-35646", "group": "last-30-days", "lat": 17.228578979141908, "lon": 151.2982643249429, "alt_km": 286.3954502427323, "timestamp": "2025-12-11T05:00:25.077359+00:00", "meta": {"OBJECT_NAME": "STARLINK-35646", "OBJECT_ID": "2025-281M", "EPOCH": "2025-12-10T16:00:01.999584", "MEAN_MOTION": 15.96125298, "ECCENTRICITY": 0.00016815, "INCLINATION": 43.0016, "RA_OF_ASC_NODE": 135.2504, "ARG_OF_PERICENTER": 276.3454, "MEAN_ANOMALY": 232.8564, "EPHEMERIS_TYPE": 0, "CLASSIFICATION_TYPE": "U", "NORAD_CAT_ID": 66859, "ELEMENT_SET_NO": 999, "REV_AT_EPOCH": 246, "BSTAR": -0.0028252473, "MEAN_MOTION_DOT": -0.01210178, "MEAN_MOTION_DDOT": 0.00044610917}, "tle": {"line1": "1 66859U 25281M   25344.66668981 -.01210178  44611-3 -28252-2 0  9992", "line2": "2 66859  43.0016 135.2504 0001681 276.3454 232.8564 15.96125298  2467"}}, "geometry": {"type": "Point", "coordinates": [151.2982643249429, 17.228578979141908]}}, {"type": "Feature", "properties": {"norad_id": 66860, "name": "STARLINK-35987", "group": "last-30-days", "lat": 25.04653575197415, "lon": 161.92593030814274, "alt_km": 284.5720260839971, "timestamp": "2025-12-11T05:00:25.077369+00:00", "meta": {"OBJECT_NAME": "STARLINK-35987", "OBJECT_ID": "2025-281N", "EPOCH": "2025-12-10T16:00:01.999584", "MEAN_MOTION": 15.96505755, "ECCENTRICITY": 0.00015818, "INCLINATION": 43.0016, "RA_OF_ASC_NODE": 135.2202, "ARG_OF_PERICENTER": 268.6575, "MEAN_ANOMALY": 252.4584, "EPHEMERIS_TYPE": 0, "CLASSIFICATION_TYPE": "U", "NORAD_CAT_ID": 66860, "ELEMENT_SET_NO": 999, "REV_AT_EPOCH": 246, "BSTAR": -0.0028282072, "MEAN_MOTION_DOT": -0.01236658, "MEAN_MOTION_DDOT": 0.00046592572}, "tle": {"line1": "1 66860U 25281N   25344.66668981 -.01236658  46593-3 -28282-2 0  9999", "line2": "2 66860  43.0016 135.2202 0001581 268.6575 252.4584 15.96505755  2461"}}, "geometry": {"type": "Point", "coordinates": [161.92593030814274, 25.04653575197415]}}, {"type": "Feature", "properties": {"norad_id": 66861, "name": "STARLINK-35991", "group": "last-30-days", "lat": 20.402053106100986, "lon": 155.37227169968602, "alt_km": 285.7116586734637, "timestamp": "2025-12-11T05:00:25.077378+00:00", "meta": {"OBJECT_NAME": "STARLINK-35991", "OBJECT_ID": "2025-281P", "EPOCH": "2025-12-10T16:00:01.999584", "MEAN_MOTION": 15.96277539, "ECCENTRICITY": 0.00015893, "INCLINATION": 43.0017, "RA_OF_ASC_NODE": 135.2384, "ARG_OF_PERICENTER": 271.8161, "MEAN_ANOMALY": 242.1053, "EPHEMERIS_TYPE": 0, "CLASSIFICATION_TYPE": "U", "NORAD_CAT_ID": 66861, "ELEMENT_SET_NO": 999, "REV_AT_EPOCH": 246, "BSTAR": -0.0028387746, "MEAN_MOTION_DOT": -0.01225954, "MEAN_MOTION_DDOT": 0.00045750931}, "tle": {"line1": "1 66861U 25281P   25344.66668981 -.01225954  45751-3 -28388-2 0  9999", "line2": "2 66861  43.0017 135.2384 0001589 271.8161 242.1053 15.96277539  2462"}}, "geometry": {"type": "Point", "coordinates": [155.37227169968602, 20.402053106100986]}}, {"type": "Feature", "properties": {"norad_id": 66862, "name": "STARLINK-35974", "group": "last-30-days", "lat": 18.917822147657045, "lon": 153.43361966212416, "alt_km": 285.97053522301303, "timestamp": "2025-12-11T05:00:25.077388+00:00", "meta": {"OBJECT_NAME": "STARLINK-35974", "OBJECT_ID": "2025-281Q", "EPOCH": "2025-12-10T16:00:01.999584", "MEAN_MOTION": 15.96204816, "ECCENTRICITY": 0.00015852, "INCLINATION": 43.0016, "RA_OF_ASC_NODE": 135.2443, "ARG_OF_PERICENTER": 276.2426, "MEAN_ANOMALY": 235.4564, "EPHEMERIS_TYPE": 0, "CLASSIFICATION_TYPE": "U", "NORAD_CAT_ID": 66862, "ELEMENT_SET_NO": 999, "REV_AT_EPOCH": 246, "BSTAR": -0.0028310506, "MEAN_MOTION_DOT": -0.01217847, "MEAN_MOTION_DDOT": 0.00045165679}, "tle": {"line1": "1 66862U 25281Q   25344.66668981 -.01217847  45166-3 -28311-2 0  9998", "line2": "2 66862  43.0016 135.2443 0001585 276.2426 235.4564 15.96204816  2467"}}, "geometry": {"type": "Point", "coordinates": [153.43361966212416, 18.917822147657045]}}, {"type": "Feature", "properties": {"norad_id": 66863, "name": "STARLINK-36134", "group": "last-30-days", "lat": 22.31936960656013, "lon": 157.9786786479451, "alt_km": 285.22915929143255, "timestamp": "2025-12-11T05:00:25.077398+00:00", "meta": {"OBJECT_NAME": "STARLINK-36134", "OBJECT_ID": "2025-281R", "EPOCH": "2025-12-10T16:00:01.999584", "MEAN_MOTION": 15.96368931, "ECCENTRICITY": 0.00015593, "INCLINATION": 43.002, "RA_OF_ASC_NODE": 135.2311, "ARG_OF_PERICENTER": 271.3805, "MEAN_ANOMALY": 245.4654, "EPHEMERIS_TYPE": 0, "CLASSIFICATION_TYPE": "U", "NORAD_CAT_ID": 66863, "ELEMENT_SET_NO": 999, "REV_AT_EPOCH": 246, "BSTAR": -0.0028390273, "MEAN_MOTION_DOT": -0.01232146, "MEAN_MOTION_DDOT": 0.00046217446}, "tle": {"line1": "1 66863U 25281R   25344.66668981 -.01232146  46217-3 -28390-2 0  9993", "line2": "2 66863  43.0020 135.2311 0001559 271.3805 245.4654 15.96368931  2465"}}, "geometry": {"type": "Point", "coordinates": [157.9786786479451, 22.31936960656013]}}, {"type": "Feature", "properties": {"norad_id": 66864, "name": "STARLINK-36070", "group": "last-30-days", "lat": 23.646907166707752, "lon": 159.86097539592356, "alt_km": 284.81342176248927, "timestamp": "2025-12-11T05:00:25.077410+00:00", "meta": {"OBJECT_NAME": "STARLINK-36070", "OBJECT_ID": "2025-281S", "EPOCH": "2025-12-10T16:00:01.999584", "MEAN_MOTION": 15.96435157, "ECCENTRICITY": 0.00015459, "INCLINATION": 43.0019, "RA_OF_ASC_NODE": 135.2256, "ARG_OF_PERICENTER": 273.7453, "MEAN_ANOMALY": 245.1559, "EPHEMERIS_TYPE": 0, "CLASSIFICATION_TYPE": "U", "NORAD_CAT_ID": 66864, "ELEMENT_SET_NO": 999, "REV_AT_EPOCH": 246, "BSTAR": -0.0028280569, "MEAN_MOTION_DOT": -0.01231853, "MEAN_MOTION_DDOT": 0.00046228589}, "tle": {"line1": "1 66864U 25281S   25344.66668981 -.01231853  46229-3 -28281-2 0  9990", "line2": "2 66864  43.0019 135.2256 0001545 273.7453 245.1559 15.96435157  2468"}}, "geometry": {"type": "Point", "coordinates": [159.86097539592356, 23.646907166707752]}}, {"type": "Feature", "properties": {"norad_id": 66865, "name": "STARLINK-36117", "group": "last-30-days", "lat": 26.491105947217303, "lon": 164.1548226041661, "alt_km": 284.14754237899524, "timestamp": "2025-12-11T05:00:25.077420+00:00", "meta": {"OBJECT_NAME": "STARLINK-36117", "OBJECT_ID": "2025-281T", "EPOCH": "2025-12-10T16:00:01.999584", "MEAN_MOTION": 15.96583953, "ECCENTRICITY": 0.00015871, "INCLINATION": 43.0019, "RA_OF_ASC_NODE": 135.2145, "ARG_OF_PERICENTER": 270.3957, "MEAN_ANOMALY": 253.0482, "EPHEMERIS_TYPE": 0, "CLASSIFICATION_TYPE": "U", "NORAD_CAT_ID": 66865, "ELEMENT_SET_NO": 999, "REV_AT_EPOCH": 246, "BSTAR": -0.0028296854, "MEAN_MOTION_DOT": -0.01242568, "MEAN_MOTION_DDOT": 0.00047038241}, "tle": {"line1": "1 66865U 25281T   25344.66668981 -.01242568  47038-3 -28297-2 0  9992", "line2": "2 66865  43.0019 135.2145 0001587 270.3957 253.0482 15.96583953  2465"}}, "geometry": {"type": "Point", "coordinates": [164.1548226041661, 26.491105947217303]}}]}